1 44716U 19074D   25232.33335648 0.00163869  00000-0  13147-3 0  9994
2 44716  10.5713 334.9223 0010420 301.5321  72.1533 15.69940676319051
